[{"OBJECT_NAME":"STARLINK-31310","OBJECT_ID":"2024-041U","EPOCH":"2026-03-09T00:24:35.411328","MEAN_MOTION":15.27495203,"ECCENTRICITY":0.00031514,"INCLINATION":43.0031,"RA_OF_ASC_NODE":314.9263,"ARG_OF_PERICENTER":243.6579,"MEAN_ANOMALY":116.395,"EPHEMERIS_TYPE":0,"CLASSIFICATION_TYPE":"U","NORAD_CAT_ID":59092,"ELEMENT_SET_NO":999,"REV_AT_EPOCH":11416,"BSTAR":0.00067356117,"MEAN_MOTION_DOT":0.00018272,"MEAN_MOTION_DDOT":0},{"OBJECT_NAME":"YAM-7","OBJECT_ID":"2024-149AN","EPOCH":"2026-03-09T17:13:55.117920","MEAN_MOTION":15.30304554,"ECCENTRICITY":0.00019733,"INCLINATION":97.3828,"RA_OF_ASC_NODE":149.4631,"ARG_OF_PERICENTER":296.5121,"MEAN_ANOMALY":63.5918,"EPHEMERIS_TYPE":0,"CLASSIFICATION_TYPE":"U","NORAD_CAT_ID":60504,"ELEMENT_SET_NO":999,"REV_AT_EPOCH":8683,"BSTAR":0.00030984439,"MEAN_MOTION_DOT":9.009e-5,"MEAN_MOTION_DDOT":0}]
